FLOCK 3P-47             
1 42032U 17008CN  17234.12007444  .00001644  00000-0  73298-4 0  9994
2 42032  97.4908 295.3323 0007668 355.0105   5.1054 15.22821792 28399
FLOCK 3P-44             
1 42033U 17008CP  17234.17983065  .00002690  00000-0  11796-3 0  9998
2 42033  97.4911 295.4099 0007582 356.8912   3.2276 15.22841862 27153
FLOCK 3P-64             
1 42034U 17008CQ  17234.24458462  .00001659  00000-0  73935-4 0  9993
2 42034  97.4907 295.4672 0007574 356.7731   3.3455 15.22837886 28584
FLOCK 3P-63             
1 42035U 17008CR  17234.24389644  .00004057  00000-0  17623-3 0  9995
2 42035  97.4905 295.4654 0007568 357.0846   3.0345 15.22852748 26551
FLOCK 3P-62             
1 42036U 17008CS  17234.16810361  .00002327  00000-0  10214-3 0  9999
2 42036  97.4907 295.4169 0007646 358.3440   1.7770 15.22945148 27742
FLOCK 3P-38             
1 42037U 17008CT  17234.50469696  .00003047  00000-0  13315-3 0  9994
2 42037  97.4906 295.7307 0007245 357.2728   2.8468 15.22853193 28577
FLOCK 3P-39             
1 42038U 17008CU  17234.17400800  .00001839  00000-0  81612-4 0  9993
2 42038  97.4903 295.3984 0007552 357.6002   2.5196 15.22846164 28476
FLOCK 3P-15             
1 42039U 17008CV  17234.17795826  .00001487  00000-0  66622-4 0  9992
2 42039  97.4906 295.4007 0007410 357.8384   2.2819 15.22825714 27752
FLOCK 3P-13             
1 42040U 17008CW  17234.23818019  .00006250  00000-0  26971-3 0  9996
2 42040  97.4908 295.4770 0007335 358.1569   1.9639 15.22867028 27758
FLOCK 3P-55             
1 42041U 17008CX  17234.21834625  .00001815  00000-0  80263-4 0  9993
2 42041  97.4907 295.4999 0007286   3.1771 356.9510 15.22983245 28592
FLOCK 3P-56             
1 42042U 17008CY  17234.41348202  .00003686  00000-0  15906-3 0  9996
2 42042  97.4904 295.6912 0007147   1.6277 358.4982 15.23142216 28414
FLOCK 3P-81             
1 42043U 17008CZ  17234.13284517  .00001574  00000-0  70334-4 0  9995
2 42043  97.4931 295.3778 0007471 339.1452  20.9479 15.22821636 27753
FLOCK 3P-87             
1 42044U 17008DA  17234.53558807  .00002042  00000-0  90334-4 0  9999
2 42044  97.4926 295.7512 0007510 333.8854  26.2003 15.22824222 27968
FLOCK 3P-29             
1 42045U 17008DB  17234.14306112  .00003451  00000-0  15059-3 0  9992
2 42045  97.4911 295.3082 0007097 332.8339  27.2526 15.22807849 27752
FLOCK 3P-82             
1 42046U 17008DC  17234.53882053  .00003316  00000-0  14488-3 0  9994
2 42046  97.4929 295.7518 0007568 334.5510  25.5353 15.22795002 27861
FLOCK 3P-78             
1 42047U 17008DD  17234.46908643  .00003483  00000-0  15182-3 0  9998
2 42047  97.4930 295.6934 0007385 333.9902  26.0962 15.22838496 27788
FLOCK 3P-74             
1 42048U 17008DE  17234.21391321  .00001800  00000-0  80135-4 0  9993
2 42048  97.4932 295.4270 0007760 335.7568  24.3302 15.22754605 27741
FLOCK 3P-31             
1 42049U 17008DF  17234.14870807  .00003898  00000-0  16994-3 0  9997
2 42049  97.4911 295.3030 0007219 333.8161  26.2710 15.22756883 27192
FLOCK 3P-83             
1 42050U 17008DG  17234.47800148  .00003111  00000-0  13635-3 0  9993
2 42050  97.4929 295.6794 0007650 335.6357  24.4517 15.22734829 28517
FLOCK 3P-72             
1 42051U 17008DH  17234.39440097  .00003003  00000-0  13135-3 0  9993
2 42051  97.4935 295.6485 0007132 334.7124  25.3762 15.22838676 26097
LEMUR-2-REDFERN-GOES    
1 42059U 98067LA  17234.10328167  .00017138  00000-0  21656-3 0  9998
2 42059  51.6385  65.5887 0008001 180.0390 180.0603 15.59623560 26298
LEMUR-2-TRUTNA          
1 42067U 98067LC  17233.89498089  .00029999  00000-0  32838-3 0  9995
2 42067  51.6377  64.9429 0007307 180.8820 179.2162 15.62994285 26117
LEMUR-2-AUSTINTACIOUS   
1 42068U 98067LD  17234.14275057  .00020075  00000-0  24568-3 0  9990
2 42068  51.6385  65.1029 0007794 178.5455 181.5562 15.60347117 26231
LEMUR-2-TRUTNAHD        
1 42069U 98067LE  17234.47586243  .00021485  00000-0  26583-3 0  9994
2 42069  51.6396  63.5875 0007218 179.7357 180.3641 15.60014296 26335
HAVELSAT                
1 42700U 98067LH  17234.46233764  .00019510  00000-0  26824-3 0  9996
2 42700  51.6390  66.4854 0006473 205.7664 154.3006 15.57277627 15264
SOMP 2                  
1 42701U 98067LJ  17234.53357266  .00016205  00000-0  22610-3 0  9996
2 42701  51.6398  66.2146 0006405 206.6442 153.4222 15.57029452 15265
COLUMBIA                
1 42702U 98067LK  17234.53065842  .00041955  00000-0  52412-3 0  9996
2 42702  51.6389  65.4421 0006897 203.0115 157.0569 15.59390277 15202
SGSAT                   
1 42703U 98067LL  17234.49259020  .00032567  00000-0  42196-3 0  9992
2 42703  51.6381  65.9374 0003276 161.2566 198.8547 15.58565902 15184
CXBN-2                  
1 42704U 98067LM  17234.54054755  .00017873  00000-0  24917-3 0  9991
2 42704  51.6392  66.2598 0002768 156.0227 204.0894 15.56984609 15193
ICECUBE                 
1 42705U 98067LN  17234.53153059  .00024329  00000-0  33147-3 0  9997
2 42705  51.6404  66.2054 0002651 155.1535 204.9585 15.57388043 15252
PHOENIX                 
1 42706U 98067LP  17234.53045601  .00017699  00000-0  24566-3 0  9998
2 42706  51.6397  66.1956 0002021 172.3167 187.7857 15.57111914 15180
X-CUBESAT               
1 42707U 98067LQ  17234.53122961  .00018716  00000-0  25890-3 0  9996
2 42707  51.6392  66.1975 0002066 174.2299 185.8718 15.57160425 15178
QBEE50-LTU-OC           
1 42708U 98067LR  17234.46940514  .00018854  00000-0  26120-3 0  9991
2 42708  51.6393  66.5349 0002147 174.7617 185.3397 15.57113583 15124
ALTAIR PATHFINDER       
1 42711U 98067LS  17234.50927085  .00012703  00000-0  18471-3 0  9995
2 42711  51.6393  66.7975 0004999 145.6341 214.4974 15.56149639 14835
SHARC                   
1 42712U 98067LT  17234.50761807  .00010309  00000-0  15202-3 0  9993
2 42712  51.6397  66.7912 0003006 144.1445 215.9749 15.56012995 15075
ZA-AEROSAT              
1 42713U 98067LU  17234.48788079  .00015370  00000-0  21808-3 0  9993
2 42713  51.6396  66.6582 0002941 141.2468 218.8735 15.56635682 14831
LINK                    
1 42714U 98067LV  17234.54238262  .00024561  00000-0  33693-3 0  9992
2 42714  51.6386  66.2694 0003070 150.6238 209.4927 15.57196721 14953
CSUNSAT 1               
1 42715U 98067LW  17234.49401337  .00014913  00000-0  21192-3 0  9993
2 42715  51.6389  66.6954 0005163 138.2500 221.8886 15.56613581 14835
UPSAT                   
1 42716U 98067LX  17234.46455360  .00021263  00000-0  29071-3 0  9996
2 42716  51.6393  66.5019 0004825 206.4925 153.5821 15.57375218 14962
SPACECUBE               
1 42717U 98067LY  17234.54135977  .00017455  00000-0  24358-3 0  9996
2 42717  51.6390  66.2646 0004771 206.8019 153.2727 15.56972108 14211
HOOPOE                  
1 42718U 98067LZ  17234.53526554  .00017851  00000-0  24697-3 0  9997
2 42718  51.6394  66.2254 0004824 205.7719 154.3033 15.57185449 14212
CHALLENGER              
1 42721U 98067MA  17234.54068873  .00025925  00000-0  35118-3 0  9998
2 42721  51.6389  66.2571 0008114 190.4415 169.6410 15.57474969 13913
NJUST-1                 
1 42722U 98067MB  17234.12159918  .00012041  00000-0  17399-3 0  9990
2 42722  51.6393  68.7086 0007874 188.8484 171.2370 15.56362718 13849
UNSW-ECO                
1 42723U 98067MC  17234.42992369  .00020338  00000-0  28342-3 0  9997
2 42723  51.6396  67.0198 0007867 189.5677 170.5166 15.56872717 13876
DUTHSAT                 
1 42724U 98067MD  17234.54798137  .00025386  00000-0  34629-3 0  9991
2 42724  51.6392  66.3071 0007129 192.2203 167.8617 15.57307800 13813
LILACSAT-1              
1 42725U 98067ME  17234.38051052  .00016720  00000-0  23823-3 0  9998
2 42725  51.6396  67.4394 0006855 192.2698 167.8128 15.56431644 13787
NSIGHT-1                
1 42726U 98067MF  17234.46284777  .00012999  00000-0  19145-3 0  9996
2 42726  51.6398  67.2401 0006717 193.1008 166.9810 15.55765126 13804
SNUSAT-1                
1 42727U 98067MG  17234.50788491  .00018452  00000-0  26158-3 0  9996
2 42727  51.6387  66.7849 0008466 156.3302 203.8081 15.56477064 13773
QBITO                   
1 42728U 98067MH  17234.49720958  .00018853  00000-0  26474-3 0  9995
2 42728  51.6398  66.7218 0004059 196.2865 163.7997 15.56744473 13611
AALTO-2                 
1 42729U 98067MJ  17234.56122542  .00017757  00000-0  24976-3 0  9996
2 42729  51.6393  66.3974 0004080 196.4522 163.6338 15.56745889 13630
SUSAT                   
1 42730U 98067MK  17234.49995689  .00016909  00000-0  23924-3 0  9990
2 42730  51.6390  66.7366 0004181 193.7915 166.2963 15.56626008 13618
I-INSPIRE II            
1 42731U 98067ML  17234.49210410  .00023349  00000-0  32305-3 0  9992
2 42731  51.6388  66.6785 0007976 145.4685 214.6826 15.56972209 13661
POLYITAN-2-SAU          
1 42732U 98067MM  17233.91737044  .00015752  00000-0  22192-3 0  9998
2 42732  51.6385  69.5897 0008030 142.3446 217.8110 15.56780944 13572
SNUSAT-1B               
1 42733U 98067MN  17234.56508812  .00017563  00000-0  24786-3 0  9993
2 42733  51.6386  66.4159 0007857 145.7563 214.3937 15.56642679 13676
EXALTA-1                
1 42734U 98067MP  17234.49187527  .00019961  00000-0  27737-3 0  9995
2 42734  51.6390  66.6783 0009580 167.5447 192.5784 15.56947696 13613
AOXIANG-1               
1 42735U 98067MQ  17233.92710910  .00012579  00000-0  18106-3 0  9999
2 42735  51.6393  69.6591 0008539 185.2084 174.8820 15.56415774 14942
BEEAGLESAT              
1 42736U 98067MR  17234.56812005  .00015398  00000-0  21915-3 0  9993
2 42736  51.6391  66.4404 0008438 186.8694 173.2183 15.56521553 13735
ATLANTIS                
1 42737U 98067MS  17234.06851440  .00029890  00000-0  38958-3 0  9992
2 42737  51.6380  68.3508 0008692 184.5244 175.5672 15.58418698 13553
LEMUR-2-ANGELA          
1 42752U 17019B   17234.20155758  .00003095  00000-0  12584-3 0  9998
2 42752  51.6395  84.0092 0010735 214.9640 145.0635 15.27589575 11387
